{
  "norad_id": 68135,
  "name": "GUOWANG GROUP 20 OBJECT G",
  "history": [
    {
      "epoch": "2026-03-26T17:51:49.939200Z",
      "apogee_km": 891.8079754109258,
      "perigee_km": 884.8227347619804,
      "latitude_deg": -3.1091727043316865e-05,
      "longitude_deg": -91.2568928203971,
      "height_km": 891.7749107584806,
      "semi_major_axis_km": 7266.452355086452,
      "eccentricity": 0.00048065,
      "inclination_deg": 50.0409,
      "raan_deg": 0.8903,
      "arg_perigee_deg": 213.0056,
      "mean_anomaly_deg": 147.0548,
      "mean_motion_rev_day": 14.01583953
    }
  ]
}