{"fetched_at":"2026-03-29T02:12:04Z","count":15717,"tles":[{"name":"GUOWANG GROUP 20 OBJECT*","line1":"1 68135U 26047G   26085.74432800  .00000018  00000+0  11069-3 0  9999","line2":"2 68135  50.0409   0.8903 0004806 213.0056 147.0548 14.01583953  1962","category":"Other"}]}